{
    "links": {
        "self": "http://www.neowsapp.com/rest/v1/neo/3335046?api_key=iIulBulltgU6a56xZRHN4H3l9WmuAYTsLGpBGhQ2"
    },
    "id": "3335046",
    "neo_reference_id": "3335046",
    "name": "(2006 KK89)",
    "designation": "2006 KK89",
    "nasa_jpl_url": "http://ssd.jpl.nasa.gov/sbdb.cgi?sstr=3335046",
    "absolute_magnitude_h": 22.5,
    "estimated_diameter": {
        "kilometers": {
            "estimated_diameter_min": 0.0840533402,
            "estimated_diameter_max": 0.1879489824
        },
        "meters": {
            "estimated_diameter_min": 84.0533402073,
            "estimated_diameter_max": 187.9489824394
        },
        "miles": {
            "estimated_diameter_min": 0.0522283081,
            "estimated_diameter_max": 0.1167860472
        },
        "feet": {
            "estimated_diameter_min": 275.7655606856,
            "estimated_diameter_max": 616.6305395464
        }
    },
    "is_potentially_hazardous_asteroid": false,
    "close_approach_data": [
        {
            "close_approach_date": "2004-06-07",
            "close_approach_date_full": "2004-Jun-07 05:09",
            "epoch_date_close_approach": 1086584940000,
            "relative_velocity": {
                "kilometers_per_second": "17.3813553954",
                "kilometers_per_hour": "62572.8794233421",
                "miles_per_hour": "38880.3538839094"
            },
            "miss_distance": {
                "astronomical": "0.3871328527",
                "lunar": "150.5946797003",
                "kilometers": "57914250.170943749",
                "miles": "35986246.3518077762"
            },
            "orbiting_body": "Earth"
        },
        {
            "close_approach_date": "2005-06-08",
            "close_approach_date_full": "2005-Jun-08 01:59",
            "epoch_date_close_approach": 1118195940000,
            "relative_velocity": {
                "kilometers_per_second": "10.9829438933",
                "kilometers_per_hour": "39538.5980157947",
                "miles_per_hour": "24567.7471948698"
            },
            "miss_distance": {
                "astronomical": "0.1517951798",
                "lunar": "59.0483249422",
                "kilometers": "22708235.574347026",
                "miles": "14110243.2852239188"
            },
            "orbiting_body": "Earth"
        },
        {
            "close_approach_date": "2006-05-20",
            "close_approach_date_full": "2006-May-20 19:58",
            "epoch_date_close_approach": 1148155080000,
            "relative_velocity": {
                "kilometers_per_second": "9.1649923567",
                "kilometers_per_hour": "32993.9724840484",
                "miles_per_hour": "20501.1714026577"
            },
            "miss_distance": {
                "astronomical": "0.1923878401",
                "lunar": "74.8388697989",
                "kilometers": "28780811.092860587",
                "miles": "17883566.7410946206"
            },
            "orbiting_body": "Earth"
        },
        {
            "close_approach_date": "2006-10-21",
            "close_approach_date_full": "2006-Oct-21 23:25",
            "epoch_date_close_approach": 1161473100000,
            "relative_velocity": {
                "kilometers_per_second": "10.2799219421",
                "kilometers_per_hour": "37007.7189914988",
                "miles_per_hour": "22995.1573922455"
            },
            "miss_distance": {
                "astronomical": "0.2435934471",
                "lunar": "94.7578509219",
                "kilometers": "36441060.832117677",
                "miles": "22643425.2114988626"
            },
            "orbiting_body": "Earth"
        },
        {
            "close_approach_date": "2009-01-01",
            "close_approach_date_full": "2009-Jan-01 08:44",
            "epoch_date_close_approach": 1230799440000,
            "relative_velocity": {
                "kilometers_per_second": "16.7962744505",
                "kilometers_per_hour": "60466.588021804",
                "miles_per_hour": "37571.5863183259"
            },
            "miss_distance": {
                "astronomical": "0.334894158",
                "lunar": "130.273827462",
                "kilometers": "50099452.71224346",
                "miles": "31130356.381581348"
            },
            "orbiting_body": "Earth"
        }
    ],
    "orbital_data": {
        "orbit_id": "6",
        "orbit_determination_date": "2017-04-06 09:08:33",
        "first_observation_date": "2006-05-28",
        "last_observation_date": "2006-05-30",
        "data_arc_in_days": 2,
        "observations_used": 19,
        "orbit_uncertainty": "9",
        "minimum_orbit_intersection": ".100393",
        "jupiter_tisserand_invariant": "5.876",
        "epoch_osculation": "2453885.5",
        "eccentricity": ".1800801903930824",
        "semi_major_axis": "1.032607739137507",
        "inclination": "17.27373806590541",
        "ascending_node_longitude": "62.05649768231429",
        "orbital_period": "383.2670556375896",
        "perihelion_distance": ".8466555408722541",
        "perihelion_argument": "318.2986120652008",
        "aphelion_distance": "1.218559937402759",
        "perihelion_time": "2454018.019107415556",
        "mean_anomaly": "235.5257516453203",
        "mean_motion": ".9392928369518132",
        "equinox": "J2000",
        "orbit_class": {
            "orbit_class_type": "APO",
            "orbit_class_description": "Near-Earth asteroid orbits which cross the Earth’s orbit similar to that of 1862 Apollo",
            "orbit_class_range": "a (semi-major axis) > 1.0 AU; q (perihelion) < 1.017 AU"
        }
    },
    "is_sentry_object": false
}